[{"OBJECT_NAME":"IRIDIUM 175","OBJECT_ID":"2019-002G","EPOCH":"2026-03-09T17:13:26.534208","MEAN_MOTION":14.7222941,"ECCENTRICITY":0.00025992,"INCLINATION":86.1541,"RA_OF_ASC_NODE":332.6473,"ARG_OF_PERICENTER":105.1664,"MEAN_ANOMALY":254.984,"EPHEMERIS_TYPE":0,"CLASSIFICATION_TYPE":"U","NORAD_CAT_ID":43928,"ELEMENT_SET_NO":999,"REV_AT_EPOCH":38460,"BSTAR":0.00018528315,"MEAN_MOTION_DOT":1.193e-5,"MEAN_MOTION_DDOT":0},{"OBJECT_NAME":"CZ-4B DEB","OBJECT_ID":"1999-057FV","EPOCH":"2026-03-09T18:08:11.920128","MEAN_MOTION":14.56267894,"ECCENTRICITY":0.00779996,"INCLINATION":98.4662,"RA_OF_ASC_NODE":135.5338,"ARG_OF_PERICENTER":105.2858,"MEAN_ANOMALY":21.1952,"EPHEMERIS_TYPE":0,"CLASSIFICATION_TYPE":"U","NORAD_CAT_ID":26283,"ELEMENT_SET_NO":999,"REV_AT_EPOCH":36664,"BSTAR":0.00064227025,"MEAN_MOTION_DOT":2.912e-5,"MEAN_MOTION_DDOT":0}]
